[Satellite]
VERSION=1.1
NAME=STARLINK-1198
NICKNAME=STARLINK-1198
TLE1=1 45200U 20012Y   20078.25001157 -.00336308  00000-0 -37538-2 0  9997
TLE2=2 45200  53.0027 121.2310 0003024 261.5928 148.8270 15.63194109  5017
STATUS=0
